[{"CCSDS_OMM_VERS":"3.0","COMMENT":"GENERATED VIA SPACE-TRACK.ORG API","CREATION_DATE":"2026-05-16T10:38:26","ORIGINATOR":"18 SPCS","OBJECT_NAME":"EXPLORER 20","OBJECT_ID":"1964-051A","CENTER_NAME":"EARTH","REF_FRAME":"TEME","TIME_SYSTEM":"UTC","MEAN_ELEMENT_THEORY":"SGP4","EPOCH":"2026-05-16T06:02:23.824896","MEAN_MOTION":"13.91784710","ECCENTRICITY":"0.00969747","INCLINATION":"79.8967","RA_OF_ASC_NODE":"313.4998","ARG_OF_PERICENTER":"7.9298","MEAN_ANOMALY":"352.3363","EPHEMERIS_TYPE":"0","CLASSIFICATION_TYPE":"U","NORAD_CAT_ID":"870","ELEMENT_SET_NO":"999","REV_AT_EPOCH":"12899","BSTAR":"0.00004621877200","MEAN_MOTION_DOT":"0.00000068","MEAN_MOTION_DDOT":"0.0000000000000","SEMIMAJOR_AXIS":"7300.520","PERIOD":"103.464","APOAPSIS":"993.182","PERIAPSIS":"851.589","OBJECT_TYPE":"PAYLOAD","RCS_SIZE":"MEDIUM","COUNTRY_CODE":"US","LAUNCH_DATE":"1964-08-25","SITE":"AFWTR","DECAY_DATE":null,"FILE":"5196540","GP_ID":"323423542","TLE_LINE0":"0 EXPLORER 20","TLE_LINE1":"1 00870U 64051A   26136.25166464  .00000068  00000-0  46219-4 0  9993","TLE_LINE2":"2 00870  79.8967 313.4998 0096975   7.9298 352.3363 13.91784710128996"},{"CCSDS_OMM_VERS":"3.0","COMMENT":"GENERATED VIA SPACE-TRACK.ORG API","CREATION_DATE":"2026-05-16T17:43:08","ORIGINATOR":"18 SPCS","OBJECT_NAME":"SCOUT X-4 R\/B","OBJECT_ID":"1964-051B","CENTER_NAME":"EARTH","REF_FRAME":"TEME","TIME_SYSTEM":"UTC","MEAN_ELEMENT_THEORY":"SGP4","EPOCH":"2026-05-16T14:35:50.240832","MEAN_MOTION":"14.00677970","ECCENTRICITY":"0.00850272","INCLINATION":"79.8921","RA_OF_ASC_NODE":"102.7109","ARG_OF_PERICENTER":"229.7012","MEAN_ANOMALY":"129.6698","EPHEMERIS_TYPE":"0","CLASSIFICATION_TYPE":"U","NORAD_CAT_ID":"871","ELEMENT_SET_NO":"999","REV_AT_EPOCH":"14044","BSTAR":"0.00008507826400","MEAN_MOTION_DOT":"0.00000138","MEAN_MOTION_DDOT":"0.0000000000000","SEMIMAJOR_AXIS":"7269.585","PERIOD":"102.807","APOAPSIS":"953.262","PERIAPSIS":"829.639","OBJECT_TYPE":"ROCKET BODY","RCS_SIZE":"MEDIUM","COUNTRY_CODE":"US","LAUNCH_DATE":"1964-08-25","SITE":"AFWTR","DECAY_DATE":null,"FILE":"5196581","GP_ID":"323457242","TLE_LINE0":"0 SCOUT X-4 R\/B","TLE_LINE1":"1 00871U 64051B   26136.60822038  .00000138  00000-0  85078-4 0  9993","TLE_LINE2":"2 00871  79.8921 102.7109 0085027 229.7012 129.6698 14.00677970140444"},{"CCSDS_OMM_VERS":"3.0","COMMENT":"GENERATED VIA SPACE-TRACK.ORG API","CREATION_DATE":"2026-05-16T19:46:19","ORIGINATOR":"18 SPCS","OBJECT_NAME":"COSMOS 44","OBJECT_ID":"1964-053A","CENTER_NAME":"EARTH","REF_FRAME":"TEME","TIME_SYSTEM":"UTC","MEAN_ELEMENT_THEORY":"SGP4","EPOCH":"2026-05-16T12:48:34.608960","MEAN_MOTION":"14.65721630","ECCENTRICITY":"0.01520370","INCLINATION":"65.0605","RA_OF_ASC_NODE":"59.2495","ARG_OF_PERICENTER":"274.2358","MEAN_ANOMALY":"84.1383","EPHEMERIS_TYPE":"0","CLASSIFICATION_TYPE":"U","NORAD_CAT_ID":"876","ELEMENT_SET_NO":"999","REV_AT_EPOCH":"28403","BSTAR":"0.00002330200000","MEAN_MOTION_DOT":"0.00000005","MEAN_MOTION_DDOT":"0.0000000000000","SEMIMAJOR_AXIS":"7052.896","PERIOD":"98.245","APOAPSIS":"781.992","PERIAPSIS":"567.531","OBJECT_TYPE":"PAYLOAD","RCS_SIZE":"LARGE","COUNTRY_CODE":"CIS","LAUNCH_DATE":"1964-08-28","SITE":"TTMTR","DECAY_DATE":null,"FILE":"5196665","GP_ID":"323492788","TLE_LINE0":"0 COSMOS 44","TLE_LINE1":"1   876U 64053A   26136.53373390  .00000005  00000-0  23302-4 0  9999","TLE_LINE2":"2   876  65.0605  59.2495 0152037 274.2358  84.1383 14.65721630284037"},{"CCSDS_OMM_VERS":"3.0","COMMENT":"GENERATED VIA SPACE-TRACK.ORG API","CREATION_DATE":"2026-05-16T17:43:08","ORIGINATOR":"18 SPCS","OBJECT_NAME":"SL-3 R\/B","OBJECT_ID":"1964-053B","CENTER_NAME":"EARTH","REF_FRAME":"TEME","TIME_SYSTEM":"UTC","MEAN_ELEMENT_THEORY":"SGP4","EPOCH":"2026-05-16T07:17:27.877632","MEAN_MOTION":"14.61408976","ECCENTRICITY":"0.00813182","INCLINATION":"65.0749","RA_OF_ASC_NODE":"132.9962","ARG_OF_PERICENTER":"271.0695","MEAN_ANOMALY":"88.1089","EPHEMERIS_TYPE":"0","CLASSIFICATION_TYPE":"U","NORAD_CAT_ID":"877","ELEMENT_SET_NO":"999","REV_AT_EPOCH":"27667","BSTAR":"0.00003392058500","MEAN_MOTION_DOT":"0.00000049","MEAN_MOTION_DDOT":"0.0000000000000","SEMIMAJOR_AXIS":"7066.765","PERIOD":"98.535","APOAPSIS":"746.096","PERIAPSIS":"631.165","OBJECT_TYPE":"ROCKET BODY","RCS_SIZE":"LARGE","COUNTRY_CODE":"CIS","LAUNCH_DATE":"1964-08-28","SITE":"TTMTR","DECAY_DATE":null,"FILE":"5196581","GP_ID":"323457243","TLE_LINE0":"0 SL-3 R\/B","TLE_LINE1":"1 00877U 64053B   26136.30379488  .00000049  00000-0  33921-4 0  9995","TLE_LINE2":"2 00877  65.0749 132.9962 0081318 271.0695  88.1089 14.61408976276676"},{"CCSDS_OMM_VERS":"3.0","COMMENT":"GENERATED VIA SPACE-TRACK.ORG API","CREATION_DATE":"2026-05-16T17:43:08","ORIGINATOR":"18 SPCS","OBJECT_NAME":"THOR ABLESTAR R\/B","OBJECT_ID":"1964-063A","CENTER_NAME":"EARTH","REF_FRAME":"TEME","TIME_SYSTEM":"UTC","MEAN_ELEMENT_THEORY":"SGP4","EPOCH":"2026-05-16T14:19:25.865760","MEAN_MOTION":"13.56318532","ECCENTRICITY":"0.00243468","INCLINATION":"90.2328","RA_OF_ASC_NODE":"74.4402","ARG_OF_PERICENTER":"319.3780","MEAN_ANOMALY":"213.7364","EPHEMERIS_TYPE":"0","CLASSIFICATION_TYPE":"U","NORAD_CAT_ID":"893","ELEMENT_SET_NO":"999","REV_AT_EPOCH":"4769","BSTAR":"0.00004844281600","MEAN_MOTION_DOT":"0.00000043","MEAN_MOTION_DDOT":"0.0000000000000","SEMIMAJOR_AXIS":"7427.239","PERIOD":"106.170","APOAPSIS":"1067.187","PERIAPSIS":"1031.021","OBJECT_TYPE":"ROCKET BODY","RCS_SIZE":"LARGE","COUNTRY_CODE":"US","LAUNCH_DATE":"1964-10-06","SITE":"AFWTR","DECAY_DATE":null,"FILE":"5196581","GP_ID":"323457744","TLE_LINE0":"0 THOR ABLESTAR R\/B","TLE_LINE1":"1 00893U 64063A   26136.59682715  .00000043  00000-0  48443-4 0  9994","TLE_LINE2":"2 00893  90.2328  74.4402 0024347 319.3780 213.7364 13.56318532 47697"},{"CCSDS_OMM_VERS":"3.0","COMMENT":"GENERATED VIA SPACE-TRACK.ORG API","CREATION_DATE":"2026-05-16T17:43:08","ORIGINATOR":"18 SPCS","OBJECT_NAME":"OPS 5798 (TRANSIT 5B-4)","OBJECT_ID":"1964-063B","CENTER_NAME":"EARTH","REF_FRAME":"TEME","TIME_SYSTEM":"UTC","MEAN_ELEMENT_THEORY":"SGP4","EPOCH":"2026-05-16T14:01:03.935712","MEAN_MOTION":"13.53732327","ECCENTRICITY":"0.00175053","INCLINATION":"90.2357","RA_OF_ASC_NODE":"74.7556","ARG_OF_PERICENTER":"271.0312","MEAN_ANOMALY":"262.6292","EPHEMERIS_TYPE":"0","CLASSIFICATION_TYPE":"U","NORAD_CAT_ID":"897","ELEMENT_SET_NO":"999","REV_AT_EPOCH":"4094","BSTAR":"0.00003107170100","MEAN_MOTION_DOT":"0.00000030","MEAN_MOTION_DDOT":"0.0000000000000","SEMIMAJOR_AXIS":"7436.695","PERIOD":"106.373","APOAPSIS":"1071.578","PERIAPSIS":"1045.542","OBJECT_TYPE":"PAYLOAD","RCS_SIZE":"MEDIUM","COUNTRY_CODE":"US","LAUNCH_DATE":"1964-10-06","SITE":"AFWTR","DECAY_DATE":null,"FILE":"5196581","GP_ID":"323457244","TLE_LINE0":"0 OPS 5798 (TRANSIT 5B-4)","TLE_LINE1":"1 00897U 64063B   26136.58407333  .00000030  00000-0  31072-4 0  9994","TLE_LINE2":"2 00897  90.2357  74.7556 0017505 271.0312 262.6292 13.53732327 40942"},{"CCSDS_OMM_VERS":"3.0","COMMENT":"GENERATED VIA SPACE-TRACK.ORG API","CREATION_DATE":"2026-05-16T19:46:19","ORIGINATOR":"18 SPCS","OBJECT_NAME":"EXPLORER 22","OBJECT_ID":"1964-064A","CENTER_NAME":"EARTH","REF_FRAME":"TEME","TIME_SYSTEM":"UTC","MEAN_ELEMENT_THEORY":"SGP4","EPOCH":"2026-05-16T11:38:16.319904","MEAN_MOTION":"13.83044179","ECCENTRICITY":"0.01182610","INCLINATION":"79.6891","RA_OF_ASC_NODE":"161.6994","ARG_OF_PERICENTER":"287.7561","MEAN_ANOMALY":"71.0712","EPHEMERIS_TYPE":"0","CLASSIFICATION_TYPE":"U","NORAD_CAT_ID":"899","ELEMENT_SET_NO":"999","REV_AT_EPOCH":"10059","BSTAR":"0.00010989000000","MEAN_MOTION_DOT":"0.00000132","MEAN_MOTION_DDOT":"0.0000000000000","SEMIMAJOR_AXIS":"7331.246","PERIOD":"104.118","APOAPSIS":"1039.811","PERIAPSIS":"866.411","OBJECT_TYPE":"PAYLOAD","RCS_SIZE":"LARGE","COUNTRY_CODE":"US","LAUNCH_DATE":"1964-10-10","SITE":"AFWTR","DECAY_DATE":null,"FILE":"5196665","GP_ID":"323492289","TLE_LINE0":"0 EXPLORER 22","TLE_LINE1":"1   899U 64064A   26136.48491111  .00000132  00000-0  10989-3 0  9999","TLE_LINE2":"2   899  79.6891 161.6994 0118261 287.7561  71.0712 13.83044179100592"},{"CCSDS_OMM_VERS":"3.0","COMMENT":"GENERATED VIA SPACE-TRACK.ORG API","CREATION_DATE":"2026-05-16T19:46:19","ORIGINATOR":"18 SPCS","OBJECT_NAME":"CALSPHERE 1","OBJECT_ID":"1964-063C","CENTER_NAME":"EARTH","REF_FRAME":"TEME","TIME_SYSTEM":"UTC","MEAN_ELEMENT_THEORY":"SGP4","EPOCH":"2026-05-16T13:41:03.171840","MEAN_MOTION":"13.76585419","ECCENTRICITY":"0.00279380","INCLINATION":"90.2233","RA_OF_ASC_NODE":"71.0251","ARG_OF_PERICENTER":"32.1087","MEAN_ANOMALY":"141.4728","EPHEMERIS_TYPE":"0","CLASSIFICATION_TYPE":"U","NORAD_CAT_ID":"900","ELEMENT_SET_NO":"999","REV_AT_EPOCH":"6707","BSTAR":"0.00048216000000","MEAN_MOTION_DOT":"0.00000483","MEAN_MOTION_DDOT":"0.0000000000000","SEMIMAJOR_AXIS":"7354.160","PERIOD":"104.607","APOAPSIS":"996.571","PERIAPSIS":"955.479","OBJECT_TYPE":"PAYLOAD","RCS_SIZE":"SMALL","COUNTRY_CODE":"US","LAUNCH_DATE":"1964-10-06","SITE":"AFWTR","DECAY_DATE":null,"FILE":"5196665","GP_ID":"323492789","TLE_LINE0":"0 CALSPHERE 1","TLE_LINE1":"1   900U 64063C   26136.57017560  .00000483  00000-0  48216-3 0  9996","TLE_LINE2":"2   900  90.2233  71.0251 0027938  32.1087 141.4728 13.76585419 67072"}]